#aV2021 11 25  0  0  0.00000000     288 DD+AD WGS84 FIT  NGA
## 2185 345600.00000000   300.00000000 59543 0.0000000000000
+   32     1  2  3  4  5  6  7  8  9 10 11 12 13 14 15 16 17
+         18 19 20 21 22 23 24 25 26 27 28 29 30 31 32  0  0
+          0  0  0  0  0  0  0  0  0  0  0  0  0  0  0  0  0
+          0  0  0  0  0  0  0  0  0  0  0  0  0  0  0  0  0
+          0  0  0  0  0  0  0  0  0  0  0  0  0  0  0  0  0
++         2  2  2  2  2  2  2  2  2  2  2  2  2  2  2  2  2
++         2  2  2  2  2  2  2  2  2  2  2  2  2  2  2  0  0
++         0  0  0  0  0  0  0  0  0  0  0  0  0  0  0  0  0
++         0  0  0  0  0  0  0  0  0  0  0  0  0  0  0  0  0
++         0  0  0  0  0  0  0  0  0  0  0  0  0  0  0  0  0
%c cc cc ccc ccc cccc cccc cccc cccc ccccc ccccc ccccc ccccc
%c cc cc ccc ccc cccc cccc cccc cccc ccccc ccccc ccccc ccccc
%f  0.0000000  0.000000000  0.00000000000  0.000000000000000
%f  0.0000000  0.000000000  0.00000000000  0.000000000000000
%i    0    0    0    0      0      0      0      0         0
%i    0    0    0    0      0      0      0      0         0
/*      NGA, ST. LOUIS,MO.                                  
/*   EPHEMERIS COMPUTED FROM 2 DAYS OF DATA                 
/*   EPOCHA v7 SMOOTHER                                     
/*   G2139 IERS2010 SATIGS SATCOM                           
*  2021 11 25 17 10  0.00000000
P  1 -14715.236755   1016.359423  21837.431747    501.033908                    
V  1  -7531.905398 -27270.741660  -3433.506155     -0.103772                    
P  2  14553.962654  19604.764828  -9677.962259   -643.410215                    
V  2   2200.965764  13354.971623  28529.157899     -0.014612                    
P  3 -21174.325055   9861.184282  12443.435243    -22.933969                    
V  3   9496.223954 -13037.450718  26367.213465     -0.104594                    
P  4 -24427.749327    779.135753 -10489.832710   -200.943198                    
V  4 -12149.351953  -5922.778570  27778.082188      0.010380                    
P  5  16042.647745   4073.629583 -20966.939742    -62.277376                    
V  5 -16817.176671  20131.221116  -8877.862260     -0.012832                    
P  6   5245.957125  25814.367605   3200.290394    126.680552                    
V  6  -3068.684398  -3254.068210  31999.253911      0.094814                    
P  7  -8177.896125  17411.177869 -17725.287668    282.898123                    
V  7  -8482.514656 -21988.096308 -17807.898322      0.050618                    
P  8 -25989.480146  -6264.101869   -651.674809    -45.589482                    
V  8   1306.332402  -2160.804736 -31626.438200     -0.014378                    
P  9 -16413.402279   9798.500520 -18526.849054   -361.380084                    
V  9 -22476.698713  -6637.787766  16438.874757      0.004433                    
P 10   8365.770024 -21582.607183  12881.122984   -254.200900                    
V 10  12771.395728 -10275.919573 -26047.946063     -0.086371                    
P 11  11951.018782  21661.320601  -9695.040008     17.464830                    
V 11    338.447202  12541.462466  28439.947416     -0.022545                    
P 12  21502.574185  -7005.944335  13563.892269   -131.562874                    
V 12 -11675.468579  13445.470939  25117.586431     -0.055616                    
P 13  22085.037735  13460.430722  -6544.735836    219.972080                    
V 13  -8361.382638   -769.651383 -30363.100383      0.057131                    
P 14  -9451.442857  21404.805801  12510.584416    -44.601237                    
V 14 -13197.359530   9253.462346 -25854.673923     -0.066306                    
P 15  26494.639244   3613.855942   -672.515026   -103.825934                    
V 15   -788.025015   3452.529831 -30812.923168      0.028174                    
P 16 -13442.575042  -7999.396368 -21771.030307   -430.166235                    
V 16  20157.393003 -17896.036829  -5488.117151     -0.063320                    
P 17  -2631.783754  14836.932585  22312.500484    538.760019                    
V 17 -26036.517390  -7911.845492   2258.978880      0.053948                    
P 18   7457.326665 -18460.213126 -17534.556302    289.965323                    
V 18   7321.044880  21091.544555 -19192.976490     -0.061113                    
P 19   7202.681877  16431.978815  19380.580297     83.954804                    
V 19 -23937.517419  -7528.067949  14910.207321      0.049941                    
P 20   8566.626556  14209.964811 -20803.570931    517.945713                    
V 20 -15746.450676  21201.937307   7743.272530     -0.001824                    
P 21 -17465.933188  -7910.864954  19298.703006    152.040064                    
V 21  -7215.896427 -21742.616852 -15449.952372      0.010842                    
P 22 -19080.992000   2667.848116  18365.129796   -456.301703                    
V 22  12601.682711 -19486.835429  16282.125833      0.090456                    
P 23  16662.852608 -20520.187193   2039.959040     28.875061                    
V 23   3762.617364   -128.025995 -31797.605788     -0.043125                    
P 24  16974.649623   3204.461669  19992.994478    270.376712                    
V 24   8135.941508  24722.509689 -10310.525834      0.032716                    
P 25  20003.337985 -16589.752600   4447.832094    246.144734                    
V 25  -1904.588287   6499.505933  31217.583076      0.058873                    
P 26  -2449.319417 -18372.751806 -18981.597810    158.882665                    
V 26  17115.309116 -17108.667680  14697.695249      0.037445                    
P 27 -21277.165973 -12504.361904 -10489.653663   -223.530799                    
V 27  12958.699315   1318.344764 -27985.082431     -0.045738                    
P 28  -3152.592217  19452.534179  18447.513285    455.742637                    
V 28 -17531.418014  13718.310721 -17782.555850     -0.076186                    
P 29  20154.723905  -5115.499849 -16600.318685   -445.499919                    
V 29  19493.990538   7741.954169  21271.352473     -0.051958                    
P 30  -1138.408593  24375.393812 -10123.357915   -494.318401                    
V 30  -6651.608117 -11752.492825 -27602.520480     -0.031043                    
P 31  -6417.251920 -25497.423529    504.913694   -151.943787                    
V 31   3487.614444   -116.636634  31941.700127     -0.018927                    
P 32  -2535.862802 -15955.192332  21227.409121    -26.588070                    
V 32  26083.430652   5564.441415   7157.593128     -0.049820                    
EOF
